[{"OBJECT_NAME":"STARLINK-5264","OBJECT_ID":"2022-141BB","EPOCH":"2026-03-09T23:20:04.188480","MEAN_MOTION":15.08836829,"ECCENTRICITY":0.0001239,"INCLINATION":53.2182,"RA_OF_ASC_NODE":317.6895,"ARG_OF_PERICENTER":92.9072,"MEAN_ANOMALY":267.2062,"EPHEMERIS_TYPE":0,"CLASSIFICATION_TYPE":"U","NORAD_CAT_ID":54206,"ELEMENT_SET_NO":999,"REV_AT_EPOCH":18653,"BSTAR":-7.7739346e-5,"MEAN_MOTION_DOT":-1.525e-5,"MEAN_MOTION_DDOT":0},{"OBJECT_NAME":"COSMOS 2535 DEB","OBJECT_ID":"2019-039H","EPOCH":"2026-03-09T01:37:49.505376","MEAN_MOTION":15.12536261,"ECCENTRICITY":0.00199509,"INCLINATION":97.5365,"RA_OF_ASC_NODE":108.6978,"ARG_OF_PERICENTER":50.248,"MEAN_ANOMALY":310.0505,"EPHEMERIS_TYPE":0,"CLASSIFICATION_TYPE":"U","NORAD_CAT_ID":44631,"ELEMENT_SET_NO":999,"REV_AT_EPOCH":34980,"BSTAR":0.00071319108,"MEAN_MOTION_DOT":0.00012434,"MEAN_MOTION_DDOT":0}]
